[
  {
    "source": "osm",
    "osm_id": 1405374134,
    "osm_type": "node",
    "name": "Star Oil",
    "brand": "Star Oil",
    "operator": "",
    "latitude": 5.5433522,
    "longitude": -0.3906833,
    "address": "",
    "suburb": "",
    "region": "",
    "postcode": "",
    "country": "Ghana",
    "phone": "",
    "website": "",
    "opening_hours": "",
    "_raw_tags": {
      "amenity": "fuel",
      "brand": "Star Oil",
      "name": "Star Oil"
    }
  },
  {
    "source": "osm",
    "osm_id": 1625029144,
    "osm_type": "node",
    "name": "Star Oil",
    "brand": "Star Oil",
    "operator": "",
    "latitude": 5.1714315,
    "longitude": -3.4753829,
    "address": "",
    "suburb": "",
    "region": "",
    "postcode": "",
    "country": "Ghana",
    "phone": "",
    "website": "",
    "opening_hours": "",
    "_raw_tags": {
      "amenity": "fuel",
      "brand": "Star Oil"
    }
  },
  {
    "source": "osm",
    "osm_id": 1801451390,
    "osm_type": "node",
    "name": "Star oil",
    "brand": "Star oil",
    "operator": "",
    "latitude": 5.6567171,
    "longitude": -0.1311964,
    "address": "",
    "suburb": "",
    "region": "",
    "postcode": "",
    "country": "Ghana",
    "phone": "",
    "website": "",
    "opening_hours": "",
    "_raw_tags": {
      "amenity": "fuel",
      "brand": "Star oil",
      "name": "Star oil"
    }
  },
  {
    "source": "osm",
    "osm_id": 1814555234,
    "osm_type": "node",
    "name": "Star Oil",
    "brand": "Star Oil",
    "operator": "",
    "latitude": 9.4066663,
    "longitude": -0.8365937,
    "address": "",
    "suburb": "",
    "region": "",
    "postcode": "",
    "country": "Ghana",
    "phone": "",
    "website": "",
    "opening_hours": "",
    "_raw_tags": {
      "amenity": "fuel",
      "brand": "Star Oil",
      "compressed_air": "yes",
      "name": "Star Oil"
    }
  },
  {
    "source": "osm",
    "osm_id": 1825598843,
    "osm_type": "node",
    "name": "Star Oil",
    "brand": "Star Oil",
    "operator": "",
    "latitude": 5.7008431,
    "longitude": -0.0402224,
    "address": "",
    "suburb": "",
    "region": "",
    "postcode": "",
    "country": "Ghana",
    "phone": "",
    "website": "",
    "opening_hours": "",
    "_raw_tags": {
      "amenity": "fuel",
      "brand": "Star Oil",
      "name": "Star Oil"
    }
  },
  {
    "source": "osm",
    "osm_id": 1936059243,
    "osm_type": "node",
    "name": "StarOil",
    "brand": "StarOil",
    "operator": "StarOil Company Limited",
    "latitude": 9.4508394,
    "longitude": -0.8447292,
    "address": "",
    "suburb": "",
    "region": "",
    "postcode": "",
    "country": "Ghana",
    "phone": "",
    "website": "",
    "opening_hours": "",
    "_raw_tags": {
      "amenity": "fuel",
      "brand": "StarOil",
      "brand:wikidata": "Q126096894",
      "name": "StarOil",
      "operator": "StarOil Company Limited",
      "operator:type": "private"
    }
  },
  {
    "source": "osm",
    "osm_id": 2579171684,
    "osm_type": "node",
    "name": "Star Oil",
    "brand": "Star Oil",
    "operator": "",
    "latitude": 5.8076967,
    "longitude": 0.0092539,
    "address": "",
    "suburb": "",
    "region": "",
    "postcode": "",
    "country": "Ghana",
    "phone": "",
    "website": "",
    "opening_hours": "",
    "_raw_tags": {
      "amenity": "fuel",
      "brand": "Star Oil",
      "name": "Star Oil"
    }
  },
  {
    "source": "osm",
    "osm_id": 2621753182,
    "osm_type": "node",
    "name": "Star Oil",
    "brand": "Star Oil",
    "operator": "",
    "latitude": 5.5285052,
    "longitude": -0.4513745,
    "address": "",
    "suburb": "",
    "region": "",
    "postcode": "",
    "country": "Ghana",
    "phone": "",
    "website": "",
    "opening_hours": "",
    "_raw_tags": {
      "amenity": "fuel",
      "brand": "Star Oil",
      "compressed_air": "yes",
      "name": "Star Oil"
    }
  },
  {
    "source": "osm",
    "osm_id": 2621843029,
    "osm_type": "node",
    "name": "Star Oil",
    "brand": "Star Oil",
    "operator": "",
    "latitude": 5.1450338,
    "longitude": -1.2127845,
    "address": "",
    "suburb": "",
    "region": "",
    "postcode": "",
    "country": "Ghana",
    "phone": "",
    "website": "",
    "opening_hours": "",
    "_raw_tags": {
      "amenity": "fuel",
      "brand": "Star Oil",
      "name": "Star Oil"
    }
  },
  {
    "source": "osm",
    "osm_id": 3207019634,
    "osm_type": "node",
    "name": "Star Oil",
    "brand": "Star Oil",
    "operator": "",
    "latitude": 5.7439557,
    "longitude": -0.0120645,
    "address": "",
    "suburb": "",
    "region": "",
    "postcode": "",
    "country": "Ghana",
    "phone": "",
    "website": "",
    "opening_hours": "",
    "_raw_tags": {
      "amenity": "fuel",
      "brand": "Star Oil",
      "name": "Star Oil"
    }
  },
  {
    "source": "osm",
    "osm_id": 3560768124,
    "osm_type": "node",
    "name": "Star Oil",
    "brand": "Star Oil",
    "operator": "",
    "latitude": 6.0039854,
    "longitude": 0.6058417,
    "address": "",
    "suburb": "",
    "region": "",
    "postcode": "",
    "country": "Ghana",
    "phone": "",
    "website": "",
    "opening_hours": "24/7",
    "_raw_tags": {
      "amenity": "fuel",
      "brand": "Star Oil",
      "name": "Star Oil",
      "opening_hours": "24/7",
      "source": "survey"
    }
  },
  {
    "source": "osm",
    "osm_id": 3790584117,
    "osm_type": "node",
    "name": "Star Oil",
    "brand": "Star Oil",
    "operator": "",
    "latitude": 4.8994161,
    "longitude": -1.9686736,
    "address": "",
    "suburb": "",
    "region": "",
    "postcode": "",
    "country": "Ghana",
    "phone": "",
    "website": "",
    "opening_hours": "",
    "_raw_tags": {
      "amenity": "fuel",
      "brand": "Star Oil",
      "name": "Star Oil"
    }
  },
  {
    "source": "osm",
    "osm_id": 3997867014,
    "osm_type": "node",
    "name": "StarOil",
    "brand": "StarOil",
    "operator": "StarOil Company Limited",
    "latitude": 6.1602226,
    "longitude": 1.094693,
    "address": "",
    "suburb": "",
    "region": "",
    "postcode": "",
    "country": "Ghana",
    "phone": "",
    "website": "",
    "opening_hours": "",
    "_raw_tags": {
      "amenity": "fuel",
      "branch": "Wuduaba",
      "brand": "StarOil",
      "brand:wikidata": "Q126096894",
      "fuel:diesel": "yes",
      "fuel:octane_91": "yes",
      "name": "StarOil",
      "operator": "StarOil Company Limited",
      "operator:type": "private"
    }
  },
  {
    "source": "osm",
    "osm_id": 4040955973,
    "osm_type": "node",
    "name": "Star Oil",
    "brand": "Star Oil",
    "operator": "",
    "latitude": 5.2540948,
    "longitude": -2.0039862,
    "address": "",
    "suburb": "",
    "region": "",
    "postcode": "",
    "country": "Ghana",
    "phone": "",
    "website": "",
    "opening_hours": "24/7",
    "_raw_tags": {
      "amenity": "fuel",
      "brand": "Star Oil",
      "name": "Star Oil",
      "opening_hours": "24/7"
    }
  },
  {
    "source": "osm",
    "osm_id": 4161229339,
    "osm_type": "node",
    "name": "StarOil",
    "brand": "StarOil",
    "operator": "StarOil Company Limited",
    "latitude": 5.1970248,
    "longitude": -1.320426,
    "address": "",
    "suburb": "",
    "region": "",
    "postcode": "",
    "country": "Ghana",
    "phone": "",
    "website": "",
    "opening_hours": "",
    "_raw_tags": {
      "amenity": "fuel",
      "branch": "Effutu",
      "brand": "StarOil",
      "brand:wikidata": "Q126096894",
      "name": "StarOil",
      "operator": "StarOil Company Limited",
      "operator:type": "private"
    }
  },
  {
    "source": "osm",
    "osm_id": 4161231689,
    "osm_type": "node",
    "name": "Star Oil",
    "brand": "Star Oil",
    "operator": "",
    "latitude": 5.1610197,
    "longitude": -1.2964065,
    "address": "",
    "suburb": "",
    "region": "",
    "postcode": "",
    "country": "Ghana",
    "phone": "",
    "website": "",
    "opening_hours": "",
    "_raw_tags": {
      "amenity": "fuel",
      "brand": "Star Oil",
      "name": "Star Oil"
    }
  },
  {
    "source": "osm",
    "osm_id": 4171183025,
    "osm_type": "node",
    "name": "Star Oil",
    "brand": "Star Oil",
    "operator": "",
    "latitude": 6.5846703,
    "longitude": -1.5494095,
    "address": "",
    "suburb": "",
    "region": "",
    "postcode": "",
    "country": "Ghana",
    "phone": "",
    "website": "",
    "opening_hours": "",
    "_raw_tags": {
      "amenity": "fuel",
      "brand": "Star Oil",
      "name": "Star Oil"
    }
  },
  {
    "source": "osm",
    "osm_id": 4311940797,
    "osm_type": "node",
    "name": "Star Oil",
    "brand": "Star Oil",
    "operator": "",
    "latitude": 5.686161,
    "longitude": -0.1432577,
    "address": "",
    "suburb": "",
    "region": "",
    "postcode": "",
    "country": "Ghana",
    "phone": "",
    "website": "",
    "opening_hours": "",
    "_raw_tags": {
      "amenity": "fuel",
      "brand": "Star Oil",
      "name": "Star Oil"
    }
  },
  {
    "source": "osm",
    "osm_id": 4468797582,
    "osm_type": "node",
    "name": "Star Oil",
    "brand": "StarOil",
    "operator": "StarOil Company Limited",
    "latitude": 5.6316481,
    "longitude": -0.0652061,
    "address": "",
    "suburb": "",
    "region": "",
    "postcode": "",
    "country": "Ghana",
    "phone": "",
    "website": "",
    "opening_hours": "",
    "_raw_tags": {
      "amenity": "fuel",
      "brand": "StarOil",
      "brand:wikidata": "Q126096894",
      "check_date": "2024-12-29",
      "compressed_air": "yes",
      "name": "Star Oil",
      "operator": "StarOil Company Limited",
      "operator:type": "private"
    }
  },
  {
    "source": "osm",
    "osm_id": 4499388275,
    "osm_type": "node",
    "name": "Star Oil",
    "brand": "Star Oil",
    "operator": "",
    "latitude": 4.9574765,
    "longitude": -1.7396473,
    "address": "",
    "suburb": "",
    "region": "",
    "postcode": "",
    "country": "Ghana",
    "phone": "",
    "website": "",
    "opening_hours": "",
    "_raw_tags": {
      "amenity": "fuel",
      "brand": "Star Oil",
      "name": "Star Oil"
    }
  },
  {
    "source": "osm",
    "osm_id": 4816632922,
    "osm_type": "node",
    "name": "Star Oil",
    "brand": "Star Oil",
    "operator": "",
    "latitude": 9.0554687,
    "longitude": -2.488509,
    "address": "",
    "suburb": "",
    "region": "",
    "postcode": "",
    "country": "Ghana",
    "phone": "",
    "website": "",
    "opening_hours": "",
    "_raw_tags": {
      "amenity": "fuel",
      "brand": "Star Oil",
      "name": "Star Oil"
    }
  },
  {
    "source": "osm",
    "osm_id": 4910911789,
    "osm_type": "node",
    "name": "Star Oil",
    "brand": "Star Oil",
    "operator": "",
    "latitude": 5.9649835,
    "longitude": -1.8159061,
    "address": "",
    "suburb": "",
    "region": "",
    "postcode": "",
    "country": "Ghana",
    "phone": "",
    "website": "",
    "opening_hours": "",
    "_raw_tags": {
      "amenity": "fuel",
      "brand": "Star Oil",
      "name": "Star Oil"
    }
  },
  {
    "source": "osm",
    "osm_id": 4910912821,
    "osm_type": "node",
    "name": "Star Oil",
    "brand": "Star Oil",
    "operator": "",
    "latitude": 5.686995,
    "longitude": -2.1342002,
    "address": "",
    "suburb": "",
    "region": "",
    "postcode": "",
    "country": "Ghana",
    "phone": "",
    "website": "",
    "opening_hours": "",
    "_raw_tags": {
      "amenity": "fuel",
      "brand": "Star Oil",
      "name": "Star Oil"
    }
  },
  {
    "source": "osm",
    "osm_id": 4915711149,
    "osm_type": "node",
    "name": "Star Oil",
    "brand": "Star Oil",
    "operator": "",
    "latitude": 5.9611999,
    "longitude": -1.8238807,
    "address": "",
    "suburb": "",
    "region": "",
    "postcode": "",
    "country": "Ghana",
    "phone": "",
    "website": "",
    "opening_hours": "",
    "_raw_tags": {
      "amenity": "fuel",
      "brand": "Star Oil",
      "name": "Star Oil"
    }
  },
  {
    "source": "osm",
    "osm_id": 4919424892,
    "osm_type": "node",
    "name": "Star Oil",
    "brand": "Star Oil",
    "operator": "",
    "latitude": 5.8741859,
    "longitude": -1.9890028,
    "address": "",
    "suburb": "",
    "region": "",
    "postcode": "",
    "country": "Ghana",
    "phone": "",
    "website": "",
    "opening_hours": "",
    "_raw_tags": {
      "amenity": "fuel",
      "brand": "Star Oil",
      "name": "Star Oil"
    }
  },
  {
    "source": "osm",
    "osm_id": 4971250989,
    "osm_type": "node",
    "name": "Star Oil",
    "brand": "Star Oil",
    "operator": "",
    "latitude": 5.550084,
    "longitude": -0.3310146,
    "address": "",
    "suburb": "",
    "region": "",
    "postcode": "",
    "country": "Ghana",
    "phone": "",
    "website": "",
    "opening_hours": "",
    "_raw_tags": {
      "amenity": "fuel",
      "brand": "Star Oil",
      "compressed_air": "yes",
      "name": "Star Oil"
    }
  },
  {
    "source": "osm",
    "osm_id": 4971251013,
    "osm_type": "node",
    "name": "Star Oil",
    "brand": "Star Oil",
    "operator": "",
    "latitude": 5.6103085,
    "longitude": -0.2332098,
    "address": "",
    "suburb": "",
    "region": "",
    "postcode": "",
    "country": "Ghana",
    "phone": "",
    "website": "",
    "opening_hours": "",
    "_raw_tags": {
      "amenity": "fuel",
      "brand": "Star Oil",
      "compressed_air": "yes",
      "name": "Star Oil"
    }
  },
  {
    "source": "osm",
    "osm_id": 4971251104,
    "osm_type": "node",
    "name": "Benab Oil",
    "brand": "Star Oil",
    "operator": "",
    "latitude": 5.529587,
    "longitude": -0.448453,
    "address": "",
    "suburb": "",
    "region": "",
    "postcode": "",
    "country": "Ghana",
    "phone": "",
    "website": "",
    "opening_hours": "",
    "_raw_tags": {
      "amenity": "fuel",
      "brand": "Star Oil",
      "name": "Benab Oil"
    }
  },
  {
    "source": "osm",
    "osm_id": 5000982726,
    "osm_type": "node",
    "name": "Star Oil",
    "brand": "Star Oil",
    "operator": "",
    "latitude": 5.7416088,
    "longitude": 0.0362247,
    "address": "",
    "suburb": "",
    "region": "",
    "postcode": "",
    "country": "Ghana",
    "phone": "",
    "website": "",
    "opening_hours": "",
    "_raw_tags": {
      "amenity": "fuel",
      "brand": "Star Oil",
      "name": "Star Oil"
    }
  },
  {
    "source": "osm",
    "osm_id": 5295422096,
    "osm_type": "node",
    "name": "Star Oil",
    "brand": "Star Oil",
    "operator": "",
    "latitude": 5.0041318,
    "longitude": -1.6723868,
    "address": "",
    "suburb": "",
    "region": "",
    "postcode": "",
    "country": "Ghana",
    "phone": "",
    "website": "",
    "opening_hours": "",
    "_raw_tags": {
      "amenity": "fuel",
      "brand": "Star Oil",
      "name": "Star Oil",
      "source": "Bing"
    }
  },
  {
    "source": "osm",
    "osm_id": 5411441452,
    "osm_type": "node",
    "name": "Star Oil",
    "brand": "Star Oil",
    "operator": "",
    "latitude": 9.4161618,
    "longitude": -0.8172938,
    "address": "",
    "suburb": "",
    "region": "",
    "postcode": "",
    "country": "Ghana",
    "phone": "",
    "website": "",
    "opening_hours": "",
    "_raw_tags": {
      "amenity": "fuel",
      "brand": "Star Oil",
      "compressed_air": "yes",
      "fixme": "local knowledge required to verify current name/brand",
      "name": "Star Oil"
    }
  },
  {
    "source": "osm",
    "osm_id": 5516874171,
    "osm_type": "node",
    "name": "Star Oil Filling Station",
    "brand": "StarOil",
    "operator": "StarOil Company Limited",
    "latitude": 6.0602188,
    "longitude": 0.3980613,
    "address": "Battor Road",
    "suburb": "Battor",
    "region": "",
    "postcode": "",
    "country": "Ghana",
    "phone": "",
    "website": "",
    "opening_hours": "",
    "_raw_tags": {
      "addr:city": "Battor",
      "addr:street": "Battor Road",
      "amenity": "fuel",
      "brand": "StarOil",
      "name": "Star Oil Filling Station",
      "not:brand:wikidata": "Q126096894",
      "operator": "StarOil Company Limited",
      "self_service": "no"
    }
  },
  {
    "source": "osm",
    "osm_id": 5558745025,
    "osm_type": "node",
    "name": "Star Oil",
    "brand": "Star Oil",
    "operator": "",
    "latitude": 6.0277671,
    "longitude": -0.4506003,
    "address": "",
    "suburb": "",
    "region": "",
    "postcode": "",
    "country": "Ghana",
    "phone": "",
    "website": "",
    "opening_hours": "",
    "_raw_tags": {
      "amenity": "fuel",
      "brand": "Star Oil",
      "name": "Star Oil"
    }
  },
  {
    "source": "osm",
    "osm_id": 5606068078,
    "osm_type": "node",
    "name": "Star Oil",
    "brand": "Star Oil",
    "operator": "",
    "latitude": 5.5358389,
    "longitude": -0.4080659,
    "address": "",
    "suburb": "",
    "region": "",
    "postcode": "",
    "country": "Ghana",
    "phone": "",
    "website": "",
    "opening_hours": "",
    "_raw_tags": {
      "amenity": "fuel",
      "brand": "Star Oil",
      "name": "Star Oil"
    }
  },
  {
    "source": "osm",
    "osm_id": 5640448123,
    "osm_type": "node",
    "name": "Star Oil",
    "brand": "Star Oil",
    "operator": "",
    "latitude": 5.7310654,
    "longitude": -0.3123593,
    "address": "",
    "suburb": "",
    "region": "",
    "postcode": "",
    "country": "Ghana",
    "phone": "",
    "website": "",
    "opening_hours": "",
    "_raw_tags": {
      "amenity": "fuel",
      "brand": "Star Oil",
      "name": "Star Oil"
    }
  },
  {
    "source": "osm",
    "osm_id": 5726072723,
    "osm_type": "node",
    "name": "Star Oil",
    "brand": "Star Oil",
    "operator": "",
    "latitude": 5.836926,
    "longitude": -0.1169988,
    "address": "",
    "suburb": "",
    "region": "",
    "postcode": "",
    "country": "Ghana",
    "phone": "",
    "website": "",
    "opening_hours": "",
    "_raw_tags": {
      "amenity": "fuel",
      "brand": "Star Oil",
      "fuel:diesel": "yes",
      "fuel:octane_91": "yes",
      "name": "Star Oil"
    }
  },
  {
    "source": "osm",
    "osm_id": 5842077804,
    "osm_type": "node",
    "name": "StarOil",
    "brand": "StarOil",
    "operator": "StarOil Company Limited",
    "latitude": 5.0353677,
    "longitude": -1.6609842,
    "address": "",
    "suburb": "",
    "region": "",
    "postcode": "",
    "country": "Ghana",
    "phone": "",
    "website": "",
    "opening_hours": "",
    "_raw_tags": {
      "amenity": "fuel",
      "brand": "StarOil",
      "brand:wikidata": "Q126096894",
      "name": "StarOil",
      "operator": "StarOil Company Limited",
      "operator:type": "private"
    }
  },
  {
    "source": "osm",
    "osm_id": 6016612071,
    "osm_type": "node",
    "name": "Star Oil",
    "brand": "Star Oil",
    "operator": "",
    "latitude": 6.1745343,
    "longitude": 0.0699554,
    "address": "",
    "suburb": "",
    "region": "",
    "postcode": "",
    "country": "Ghana",
    "phone": "",
    "website": "",
    "opening_hours": "",
    "_raw_tags": {
      "amenity": "fuel",
      "brand": "Star Oil",
      "name": "Star Oil"
    }
  },
  {
    "source": "osm",
    "osm_id": 6031528012,
    "osm_type": "node",
    "name": "Star Oil",
    "brand": "Star Oil",
    "operator": "",
    "latitude": 6.0048222,
    "longitude": 0.6694766,
    "address": "",
    "suburb": "",
    "region": "",
    "postcode": "",
    "country": "Ghana",
    "phone": "",
    "website": "",
    "opening_hours": "",
    "_raw_tags": {
      "amenity": "fuel",
      "brand": "Star Oil",
      "name": "Star Oil"
    }
  },
  {
    "source": "osm",
    "osm_id": 6091147453,
    "osm_type": "node",
    "name": "Star Oil",
    "brand": "Star Oil",
    "operator": "",
    "latitude": 6.7003689,
    "longitude": -1.7153587,
    "address": "",
    "suburb": "",
    "region": "",
    "postcode": "",
    "country": "Ghana",
    "phone": "",
    "website": "",
    "opening_hours": "",
    "_raw_tags": {
      "amenity": "fuel",
      "brand": "Star Oil",
      "name": "Star Oil"
    }
  },
  {
    "source": "osm",
    "osm_id": 6110016691,
    "osm_type": "node",
    "name": "StarOil",
    "brand": "StarOil",
    "operator": "StarOil Company Limited",
    "latitude": 5.6749848,
    "longitude": -0.1514352,
    "address": "",
    "suburb": "",
    "region": "",
    "postcode": "",
    "country": "Ghana",
    "phone": "",
    "website": "",
    "opening_hours": "",
    "_raw_tags": {
      "amenity": "fuel",
      "brand": "StarOil",
      "brand:wikidata": "Q126096894",
      "name": "StarOil",
      "operator": "StarOil Company Limited",
      "operator:type": "private"
    }
  },
  {
    "source": "osm",
    "osm_id": 6256589171,
    "osm_type": "node",
    "name": "Star Oil",
    "brand": "StarOil",
    "operator": "StarOil Company Limited",
    "latitude": 6.0934278,
    "longitude": -0.2562327,
    "address": "",
    "suburb": "",
    "region": "",
    "postcode": "",
    "country": "Ghana",
    "phone": "",
    "website": "",
    "opening_hours": "",
    "_raw_tags": {
      "amenity": "fuel",
      "brand": "StarOil",
      "brand:wikidata": "Q126096894",
      "name": "Star Oil",
      "operator": "StarOil Company Limited",
      "operator:type": "private"
    }
  },
  {
    "source": "osm",
    "osm_id": 6305756747,
    "osm_type": "node",
    "name": "Star oil",
    "brand": "StarOil",
    "operator": "StarOil Company Limited",
    "latitude": 5.6295881,
    "longitude": -0.0916638,
    "address": "",
    "suburb": "",
    "region": "",
    "postcode": "",
    "country": "Ghana",
    "phone": "",
    "website": "",
    "opening_hours": "",
    "_raw_tags": {
      "amenity": "fuel",
      "brand": "StarOil",
      "brand:wikidata": "Q126096894",
      "name": "Star oil",
      "operator": "StarOil Company Limited",
      "operator:type": "private"
    }
  },
  {
    "source": "osm",
    "osm_id": 6314325525,
    "osm_type": "node",
    "name": "Star Oil",
    "brand": "Star Oil",
    "operator": "",
    "latitude": 5.6158913,
    "longitude": -0.2608843,
    "address": "",
    "suburb": "",
    "region": "",
    "postcode": "",
    "country": "Ghana",
    "phone": "",
    "website": "",
    "opening_hours": "",
    "_raw_tags": {
      "amenity": "fuel",
      "brand": "Star Oil",
      "name": "Star Oil"
    }
  },
  {
    "source": "osm",
    "osm_id": 6480238442,
    "osm_type": "node",
    "name": "Station star oil",
    "brand": "",
    "operator": "",
    "latitude": 8.0283042,
    "longitude": -2.8093139,
    "address": "",
    "suburb": "",
    "region": "",
    "postcode": "",
    "country": "Ghana",
    "phone": "",
    "website": "",
    "opening_hours": "",
    "_raw_tags": {
      "amenity": "fuel",
      "name": "Station star oil"
    }
  },
  {
    "source": "osm",
    "osm_id": 6532751168,
    "osm_type": "node",
    "name": "Star Oil",
    "brand": "Star Oil",
    "operator": "",
    "latitude": 6.9180079,
    "longitude": -1.6595449,
    "address": "",
    "suburb": "",
    "region": "",
    "postcode": "",
    "country": "Ghana",
    "phone": "",
    "website": "",
    "opening_hours": "",
    "_raw_tags": {
      "amenity": "fuel",
      "brand": "Star Oil",
      "name": "Star Oil"
    }
  },
  {
    "source": "osm",
    "osm_id": 6533672255,
    "osm_type": "node",
    "name": "Star Oil",
    "brand": "Star Oil",
    "operator": "",
    "latitude": 6.934075,
    "longitude": -1.6831921,
    "address": "",
    "suburb": "",
    "region": "",
    "postcode": "",
    "country": "Ghana",
    "phone": "",
    "website": "",
    "opening_hours": "",
    "_raw_tags": {
      "amenity": "fuel",
      "brand": "Star Oil",
      "name": "Star Oil"
    }
  },
  {
    "source": "osm",
    "osm_id": 6535944058,
    "osm_type": "node",
    "name": "Star Oil",
    "brand": "Star Oil",
    "operator": "",
    "latitude": 7.5981033,
    "longitude": -1.9346165,
    "address": "",
    "suburb": "",
    "region": "",
    "postcode": "",
    "country": "Ghana",
    "phone": "",
    "website": "",
    "opening_hours": "",
    "_raw_tags": {
      "amenity": "fuel",
      "brand": "Star Oil",
      "name": "Star Oil"
    }
  },
  {
    "source": "osm",
    "osm_id": 6535956195,
    "osm_type": "node",
    "name": "Star Oil",
    "brand": "Star Oil",
    "operator": "",
    "latitude": 8.9841035,
    "longitude": -1.3557311,
    "address": "",
    "suburb": "",
    "region": "",
    "postcode": "",
    "country": "Ghana",
    "phone": "",
    "website": "",
    "opening_hours": "",
    "_raw_tags": {
      "amenity": "fuel",
      "brand": "Star Oil",
      "compressed_air": "yes",
      "name": "Star Oil"
    }
  },
  {
    "source": "osm",
    "osm_id": 6544033423,
    "osm_type": "node",
    "name": "Star Oil",
    "brand": "Star Oil",
    "operator": "",
    "latitude": 9.2630282,
    "longitude": -1.0079543,
    "address": "",
    "suburb": "",
    "region": "",
    "postcode": "",
    "country": "Ghana",
    "phone": "",
    "website": "",
    "opening_hours": "",
    "_raw_tags": {
      "amenity": "fuel",
      "brand": "Star Oil",
      "name": "Star Oil"
    }
  },
  {
    "source": "osm",
    "osm_id": 6544178173,
    "osm_type": "node",
    "name": "Star Oil",
    "brand": "Star Oil",
    "operator": "",
    "latitude": 9.6462787,
    "longitude": -0.8259931,
    "address": "",
    "suburb": "",
    "region": "",
    "postcode": "",
    "country": "Ghana",
    "phone": "",
    "website": "",
    "opening_hours": "",
    "_raw_tags": {
      "amenity": "fuel",
      "brand": "Star Oil",
      "name": "Star Oil"
    }
  },
  {
    "source": "osm",
    "osm_id": 6544182136,
    "osm_type": "node",
    "name": "Star Oil",
    "brand": "Star Oil",
    "operator": "",
    "latitude": 9.1518029,
    "longitude": -1.1454235,
    "address": "",
    "suburb": "",
    "region": "",
    "postcode": "",
    "country": "Ghana",
    "phone": "",
    "website": "",
    "opening_hours": "",
    "_raw_tags": {
      "amenity": "fuel",
      "brand": "Star Oil",
      "name": "Star Oil"
    }
  },
  {
    "source": "osm",
    "osm_id": 6544182545,
    "osm_type": "node",
    "name": "StarOil",
    "brand": "StarOil",
    "operator": "StarOil Company Limited",
    "latitude": 9.4583524,
    "longitude": -0.8454409,
    "address": "",
    "suburb": "",
    "region": "",
    "postcode": "",
    "country": "Ghana",
    "phone": "",
    "website": "",
    "opening_hours": "",
    "_raw_tags": {
      "amenity": "fuel",
      "brand": "StarOil",
      "brand:wikidata": "Q126096894",
      "fuel:diesel": "yes",
      "fuel:octane_91": "yes",
      "name": "StarOil",
      "operator": "StarOil Company Limited",
      "operator:type": "private"
    }
  },
  {
    "source": "osm",
    "osm_id": 6544722607,
    "osm_type": "node",
    "name": "Star Oil",
    "brand": "Star Oil",
    "operator": "",
    "latitude": 10.9277787,
    "longitude": -0.505093,
    "address": "",
    "suburb": "",
    "region": "",
    "postcode": "",
    "country": "Ghana",
    "phone": "",
    "website": "",
    "opening_hours": "",
    "_raw_tags": {
      "amenity": "fuel",
      "brand": "Star Oil",
      "name": "Star Oil"
    }
  },
  {
    "source": "osm",
    "osm_id": 6546816358,
    "osm_type": "node",
    "name": "Star Oil",
    "brand": "Star Oil",
    "operator": "",
    "latitude": 11.0705356,
    "longitude": -0.204868,
    "address": "",
    "suburb": "",
    "region": "",
    "postcode": "",
    "country": "Ghana",
    "phone": "",
    "website": "",
    "opening_hours": "",
    "_raw_tags": {
      "amenity": "fuel",
      "brand": "Star Oil",
      "name": "Star Oil"
    }
  },
  {
    "source": "osm",
    "osm_id": 6546833139,
    "osm_type": "node",
    "name": "StarOil",
    "brand": "StarOil",
    "operator": "StarOil Company Limited",
    "latitude": 10.3023936,
    "longitude": -0.0909708,
    "address": "",
    "suburb": "",
    "region": "",
    "postcode": "",
    "country": "Ghana",
    "phone": "",
    "website": "",
    "opening_hours": "",
    "_raw_tags": {
      "amenity": "fuel",
      "brand": "StarOil",
      "brand:wikidata": "Q126096894",
      "fuel:diesel": "yes",
      "fuel:kerosene": "yes",
      "fuel:octane_91": "yes",
      "name": "StarOil",
      "operator": "StarOil Company Limited",
      "operator:type": "private"
    }
  },
  {
    "source": "osm",
    "osm_id": 6548927655,
    "osm_type": "node",
    "name": "Star Oil",
    "brand": "Star Oil",
    "operator": "",
    "latitude": 7.9903192,
    "longitude": 0.5602067,
    "address": "",
    "suburb": "",
    "region": "",
    "postcode": "",
    "country": "Ghana",
    "phone": "",
    "website": "",
    "opening_hours": "",
    "_raw_tags": {
      "amenity": "fuel",
      "brand": "Star Oil",
      "name": "Star Oil"
    }
  },
  {
    "source": "osm",
    "osm_id": 6548978005,
    "osm_type": "node",
    "name": "Star Oil",
    "brand": "Star Oil",
    "operator": "",
    "latitude": 8.8479447,
    "longitude": 0.0595348,
    "address": "",
    "suburb": "",
    "region": "",
    "postcode": "",
    "country": "Ghana",
    "phone": "",
    "website": "",
    "opening_hours": "",
    "_raw_tags": {
      "amenity": "fuel",
      "brand": "Star Oil",
      "name": "Star Oil"
    }
  },
  {
    "source": "osm",
    "osm_id": 6548992094,
    "osm_type": "node",
    "name": "Star Oil",
    "brand": "Star Oil",
    "operator": "",
    "latitude": 8.5021067,
    "longitude": 0.2963316,
    "address": "",
    "suburb": "",
    "region": "",
    "postcode": "",
    "country": "Ghana",
    "phone": "",
    "website": "",
    "opening_hours": "",
    "_raw_tags": {
      "amenity": "fuel",
      "brand": "Star Oil",
      "name": "Star Oil"
    }
  },
  {
    "source": "osm",
    "osm_id": 6551266130,
    "osm_type": "node",
    "name": "Star Oil",
    "brand": "Star Oil",
    "operator": "",
    "latitude": 7.1651115,
    "longitude": 0.4782525,
    "address": "",
    "suburb": "",
    "region": "",
    "postcode": "",
    "country": "Ghana",
    "phone": "",
    "website": "",
    "opening_hours": "",
    "_raw_tags": {
      "amenity": "fuel",
      "brand": "Star Oil",
      "name": "Star Oil"
    }
  },
  {
    "source": "osm",
    "osm_id": 6553302449,
    "osm_type": "node",
    "name": "Star Oil",
    "brand": "Star Oil",
    "operator": "",
    "latitude": 6.2413761,
    "longitude": 0.111143,
    "address": "",
    "suburb": "",
    "region": "",
    "postcode": "",
    "country": "Ghana",
    "phone": "",
    "website": "",
    "opening_hours": "",
    "_raw_tags": {
      "amenity": "fuel",
      "brand": "Star Oil",
      "name": "Star Oil"
    }
  },
  {
    "source": "osm",
    "osm_id": 6644165392,
    "osm_type": "node",
    "name": "StarOil",
    "brand": "StarOil",
    "operator": "StarOil Company Limited",
    "latitude": 9.4044703,
    "longitude": -0.8896091,
    "address": "",
    "suburb": "",
    "region": "",
    "postcode": "",
    "country": "Ghana",
    "phone": "",
    "website": "",
    "opening_hours": "",
    "_raw_tags": {
      "amenity": "fuel",
      "brand": "StarOil",
      "brand:wikidata": "Q126096894",
      "name": "StarOil",
      "operator": "StarOil Company Limited",
      "operator:type": "private"
    }
  },
  {
    "source": "osm",
    "osm_id": 6820953245,
    "osm_type": "node",
    "name": "Star Oil",
    "brand": "Star",
    "operator": "Star",
    "latitude": 9.1720424,
    "longitude": 0.0177745,
    "address": "",
    "suburb": "",
    "region": "",
    "postcode": "",
    "country": "Ghana",
    "phone": "",
    "website": "",
    "opening_hours": "",
    "_raw_tags": {
      "amenity": "fuel",
      "brand": "Star",
      "fixme": "node position",
      "name": "Star Oil",
      "operator": "Star"
    }
  },
  {
    "source": "osm",
    "osm_id": 6991178917,
    "osm_type": "node",
    "name": "Star Oil",
    "brand": "Star Oil",
    "operator": "",
    "latitude": 7.9114416,
    "longitude": -1.7625279,
    "address": "",
    "suburb": "",
    "region": "",
    "postcode": "",
    "country": "Ghana",
    "phone": "",
    "website": "",
    "opening_hours": "",
    "_raw_tags": {
      "amenity": "fuel",
      "brand": "Star Oil",
      "name": "Star Oil"
    }
  },
  {
    "source": "osm",
    "osm_id": 7181053385,
    "osm_type": "node",
    "name": "Star oil fuel stations",
    "brand": "",
    "operator": "",
    "latitude": 8.2228146,
    "longitude": -0.6696889,
    "address": "",
    "suburb": "",
    "region": "",
    "postcode": "",
    "country": "Ghana",
    "phone": "",
    "website": "",
    "opening_hours": "",
    "_raw_tags": {
      "amenity": "fuel",
      "name": "Star oil fuel stations"
    }
  },
  {
    "source": "osm",
    "osm_id": 7496837677,
    "osm_type": "node",
    "name": "Star Oil",
    "brand": "Star Oil",
    "operator": "",
    "latitude": 6.8254293,
    "longitude": -1.8613557,
    "address": "",
    "suburb": "",
    "region": "",
    "postcode": "",
    "country": "Ghana",
    "phone": "",
    "website": "",
    "opening_hours": "",
    "_raw_tags": {
      "amenity": "fuel",
      "brand": "Star Oil",
      "fuel:diesel": "yes",
      "fuel:octane_91": "yes",
      "fuel:octane_95": "no",
      "name": "Star Oil"
    }
  },
  {
    "source": "osm",
    "osm_id": 7581519446,
    "osm_type": "node",
    "name": "StarOil",
    "brand": "StarOil",
    "operator": "StarOil Company Limited",
    "latitude": 5.0365539,
    "longitude": -2.464662,
    "address": "",
    "suburb": "",
    "region": "",
    "postcode": "",
    "country": "Ghana",
    "phone": "",
    "website": "",
    "opening_hours": "",
    "_raw_tags": {
      "amenity": "fuel",
      "branch": "Anyinase",
      "brand": "StarOil",
      "brand:wikidata": "Q126096894",
      "name": "StarOil",
      "operator": "StarOil Company Limited",
      "operator:type": "private"
    }
  },
  {
    "source": "osm",
    "osm_id": 7775298431,
    "osm_type": "node",
    "name": "Star Oil",
    "brand": "Star Oil",
    "operator": "",
    "latitude": 5.5255095,
    "longitude": -0.3256375,
    "address": "",
    "suburb": "",
    "region": "",
    "postcode": "",
    "country": "Ghana",
    "phone": "",
    "website": "",
    "opening_hours": "",
    "_raw_tags": {
      "amenity": "fuel",
      "brand": "Star Oil",
      "name": "Star Oil"
    }
  },
  {
    "source": "osm",
    "osm_id": 7843514729,
    "osm_type": "node",
    "name": "Star Oil",
    "brand": "Star Oil",
    "operator": "",
    "latitude": 5.6214392,
    "longitude": -0.298035,
    "address": "",
    "suburb": "",
    "region": "",
    "postcode": "",
    "country": "Ghana",
    "phone": "",
    "website": "",
    "opening_hours": "",
    "_raw_tags": {
      "amenity": "fuel",
      "brand": "Star Oil",
      "name": "Star Oil"
    }
  },
  {
    "source": "osm",
    "osm_id": 8118550257,
    "osm_type": "node",
    "name": "Star Oil",
    "brand": "Star Oil",
    "operator": "",
    "latitude": 5.7988433,
    "longitude": -2.81488,
    "address": "",
    "suburb": "",
    "region": "",
    "postcode": "",
    "country": "Ghana",
    "phone": "",
    "website": "",
    "opening_hours": "",
    "_raw_tags": {
      "amenity": "fuel",
      "brand": "Star Oil",
      "name": "Star Oil"
    }
  },
  {
    "source": "osm",
    "osm_id": 8488450217,
    "osm_type": "node",
    "name": "Star Oil",
    "brand": "Star Oil",
    "operator": "",
    "latitude": 6.2335568,
    "longitude": 0.9932375,
    "address": "",
    "suburb": "",
    "region": "",
    "postcode": "",
    "country": "Ghana",
    "phone": "",
    "website": "",
    "opening_hours": "",
    "_raw_tags": {
      "amenity": "fuel",
      "brand": "Star Oil",
      "name": "Star Oil"
    }
  },
  {
    "source": "osm",
    "osm_id": 8572612119,
    "osm_type": "node",
    "name": "Star Oil",
    "brand": "Star Oil",
    "operator": "",
    "latitude": 5.5401702,
    "longitude": -0.2521944,
    "address": "",
    "suburb": "",
    "region": "",
    "postcode": "",
    "country": "Ghana",
    "phone": "",
    "website": "",
    "opening_hours": "",
    "_raw_tags": {
      "amenity": "fuel",
      "brand": "Star Oil",
      "name": "Star Oil"
    }
  },
  {
    "source": "osm",
    "osm_id": 8664648741,
    "osm_type": "node",
    "name": "Star Oil",
    "brand": "Star Oil",
    "operator": "",
    "latitude": 8.0081158,
    "longitude": -1.7321062,
    "address": "",
    "suburb": "",
    "region": "",
    "postcode": "",
    "country": "Ghana",
    "phone": "",
    "website": "",
    "opening_hours": "",
    "_raw_tags": {
      "amenity": "fuel",
      "brand": "Star Oil",
      "name": "Star Oil"
    }
  },
  {
    "source": "osm",
    "osm_id": 9028066552,
    "osm_type": "node",
    "name": "StarOil",
    "brand": "StarOil",
    "operator": "StarOil Company Limited",
    "latitude": 5.9455009,
    "longitude": 0.5236105,
    "address": "",
    "suburb": "",
    "region": "",
    "postcode": "",
    "country": "Ghana",
    "phone": "",
    "website": "",
    "opening_hours": "",
    "_raw_tags": {
      "amenity": "fuel",
      "brand": "StarOil",
      "brand:wikidata": "Q126096894",
      "check_date": "2018-12-28",
      "fuel:diesel": "yes",
      "fuel:octane_91": "yes",
      "name": "StarOil",
      "operator": "StarOil Company Limited",
      "operator:type": "private"
    }
  },
  {
    "source": "osm",
    "osm_id": 9701882328,
    "osm_type": "node",
    "name": "Star Oil",
    "brand": "Star Oil",
    "operator": "",
    "latitude": 6.8318946,
    "longitude": -2.4886807,
    "address": "",
    "suburb": "",
    "region": "",
    "postcode": "",
    "country": "Ghana",
    "phone": "",
    "website": "",
    "opening_hours": "",
    "_raw_tags": {
      "amenity": "fuel",
      "brand": "Star Oil",
      "name": "Star Oil"
    }
  },
  {
    "source": "osm",
    "osm_id": 9765933032,
    "osm_type": "node",
    "name": "Star Oil",
    "brand": "Star Oil",
    "operator": "",
    "latitude": 6.2469785,
    "longitude": -2.2209051,
    "address": "",
    "suburb": "",
    "region": "",
    "postcode": "",
    "country": "Ghana",
    "phone": "",
    "website": "",
    "opening_hours": "",
    "_raw_tags": {
      "amenity": "fuel",
      "brand": "Star Oil",
      "name": "Star Oil"
    }
  },
  {
    "source": "osm",
    "osm_id": 10246602430,
    "osm_type": "node",
    "name": "Star Oil",
    "brand": "Star Oil",
    "operator": "",
    "latitude": 6.6841931,
    "longitude": -1.6137743,
    "address": "",
    "suburb": "",
    "region": "",
    "postcode": "",
    "country": "Ghana",
    "phone": "",
    "website": "",
    "opening_hours": "",
    "_raw_tags": {
      "amenity": "fuel",
      "brand": "Star Oil",
      "name": "Star Oil"
    }
  },
  {
    "source": "osm",
    "osm_id": 10246602456,
    "osm_type": "node",
    "name": "Star Oil",
    "brand": "Star Oil",
    "operator": "",
    "latitude": 7.0606153,
    "longitude": -2.0294892,
    "address": "",
    "suburb": "",
    "region": "",
    "postcode": "",
    "country": "Ghana",
    "phone": "",
    "website": "",
    "opening_hours": "",
    "_raw_tags": {
      "amenity": "fuel",
      "brand": "Star Oil",
      "name": "Star Oil"
    }
  },
  {
    "source": "osm",
    "osm_id": 10246602466,
    "osm_type": "node",
    "name": "Star Oil",
    "brand": "Star Oil",
    "operator": "",
    "latitude": 6.7422276,
    "longitude": -1.7362801,
    "address": "",
    "suburb": "",
    "region": "",
    "postcode": "",
    "country": "Ghana",
    "phone": "",
    "website": "",
    "opening_hours": "",
    "_raw_tags": {
      "amenity": "fuel",
      "brand": "Star Oil",
      "name": "Star Oil"
    }
  },
  {
    "source": "osm",
    "osm_id": 10246631715,
    "osm_type": "node",
    "name": "Star Oil",
    "brand": "Star Oil",
    "operator": "",
    "latitude": 5.71004,
    "longitude": -0.1947455,
    "address": "",
    "suburb": "",
    "region": "",
    "postcode": "",
    "country": "Ghana",
    "phone": "",
    "website": "",
    "opening_hours": "",
    "_raw_tags": {
      "amenity": "fuel",
      "brand": "Star Oil",
      "name": "Star Oil"
    }
  },
  {
    "source": "osm",
    "osm_id": 10410413866,
    "osm_type": "node",
    "name": "Star Oil",
    "brand": "Star Oil",
    "operator": "",
    "latitude": 5.5259256,
    "longitude": -0.3257398,
    "address": "",
    "suburb": "",
    "region": "",
    "postcode": "",
    "country": "Ghana",
    "phone": "",
    "website": "",
    "opening_hours": "",
    "_raw_tags": {
      "amenity": "fuel",
      "brand": "Star Oil",
      "name": "Star Oil"
    }
  },
  {
    "source": "osm",
    "osm_id": 10700654031,
    "osm_type": "node",
    "name": "Star Oil",
    "brand": "Star Oil",
    "operator": "",
    "latitude": 6.5398473,
    "longitude": -0.7557409,
    "address": "",
    "suburb": "",
    "region": "",
    "postcode": "",
    "country": "Ghana",
    "phone": "",
    "website": "",
    "opening_hours": "",
    "_raw_tags": {
      "amenity": "fuel",
      "brand": "Star Oil",
      "name": "Star Oil"
    }
  },
  {
    "source": "osm",
    "osm_id": 10875107325,
    "osm_type": "node",
    "name": "Star Oil",
    "brand": "Star Oil",
    "operator": "",
    "latitude": 7.538651,
    "longitude": -1.9420796,
    "address": "",
    "suburb": "",
    "region": "",
    "postcode": "",
    "country": "Ghana",
    "phone": "",
    "website": "",
    "opening_hours": "",
    "_raw_tags": {
      "amenity": "fuel",
      "brand": "Star Oil",
      "name": "Star Oil"
    }
  },
  {
    "source": "osm",
    "osm_id": 10876703201,
    "osm_type": "node",
    "name": "Star Oil",
    "brand": "Star Oil",
    "operator": "",
    "latitude": 7.0080861,
    "longitude": -2.1638661,
    "address": "",
    "suburb": "",
    "region": "",
    "postcode": "",
    "country": "Ghana",
    "phone": "",
    "website": "",
    "opening_hours": "",
    "_raw_tags": {
      "amenity": "fuel",
      "brand": "Star Oil",
      "name": "Star Oil"
    }
  },
  {
    "source": "osm",
    "osm_id": 11007396453,
    "osm_type": "node",
    "name": "Star Oil",
    "brand": "Star Oil",
    "operator": "",
    "latitude": 6.7803469,
    "longitude": -1.4453365,
    "address": "",
    "suburb": "",
    "region": "",
    "postcode": "",
    "country": "Ghana",
    "phone": "",
    "website": "",
    "opening_hours": "",
    "_raw_tags": {
      "amenity": "fuel",
      "brand": "Star Oil",
      "name": "Star Oil",
      "shop": "yes"
    }
  },
  {
    "source": "osm",
    "osm_id": 11010358112,
    "osm_type": "node",
    "name": "Star Oil",
    "brand": "Star Oil",
    "operator": "",
    "latitude": 6.2984522,
    "longitude": -2.0243201,
    "address": "",
    "suburb": "",
    "region": "",
    "postcode": "",
    "country": "Ghana",
    "phone": "",
    "website": "",
    "opening_hours": "",
    "_raw_tags": {
      "amenity": "fuel",
      "brand": "Star Oil",
      "name": "Star Oil"
    }
  },
  {
    "source": "osm",
    "osm_id": 732078519,
    "osm_type": "way",
    "name": "Star Oil",
    "brand": "Star Oil",
    "operator": "",
    "latitude": 5.5981164,
    "longitude": -0.1020606,
    "address": "Estate Junction",
    "suburb": "Accra",
    "region": "",
    "postcode": "",
    "country": "Ghana",
    "phone": "",
    "website": "",
    "opening_hours": "",
    "_raw_tags": {
      "addr:city": "Accra",
      "addr:street": "Estate Junction",
      "amenity": "fuel",
      "brand": "Star Oil",
      "name": "Star Oil"
    }
  }
]